GOES 16                 
1 41866U 16071A   26204.63740390 -.00000086  00000+0  00000+0 0  9999
2 41866   0.4244  85.4160 0000760  70.5638 270.1499  1.00271941 35462
TIANLIAN 1-04           
1 41869U 16072A   26204.78982469  .00000035  00000+0  00000+0 0  9997
2 41869   0.9601  82.6588 0044401  91.1134 228.8495  1.00272694 35664
WGS F8 (USA 272)        
1 41879U 16075A   26204.76641752 -.00000197  00000+0  00000+0 0  9996
2 41879   0.0204  56.0973 0000151  15.4945 295.6254  1.00272477 35182
FENGYUN 4A              
1 41882U 16077A   26204.85069178 -.00000355  00000+0  00000+0 0  9994
2 41882   2.4132  79.8624 0008025 158.5716 132.9767  1.00264567 35296
ECHOSTAR 19             
1 41893U 16079A   26204.59310512 -.00000134  00000+0  00000+0 0  9995
2 41893   0.0174  66.0306 0001618  47.2424 304.4681  1.00272129 35063
JCSAT-110A (JCSAT-15)   
1 41903U 16082A   26204.84800509 -.00000346  00000+0  00000+0 0  9994
2 41903   0.0173  59.4775 0000782  62.3229 235.1229  1.00271287 35121
STAR ONE D1             
1 41904U 16082B   26204.80941145 -.00000206  00000+0  00000+0 0  9998
2 41904   0.0161 285.5848 0002084 195.0426  28.3117  1.00270749 35144
TJS-2                   
1 41911U 17001A   26204.83933839 -.00000003  00000+0  00000+0 0  9997
2 41911   0.9250  84.8421 0000921  86.0219 139.4001  1.00273055 35086
SBIRS GEO-4 (USA 273)   
1 41937U 17004A   26204.86919735  .00000131  00000+0  00000+0 0  9991
2 41937   2.3124  44.1976 0002920  68.5491 163.6702  1.00279954 34969
HISPASAT 36W-1          
1 41942U 17006A   26204.74776123 -.00000239  00000+0  00000+0 0  9998
2 41942   0.0144 304.5358 0000995 181.8869  48.2502  1.00271790 34615
TELKOM 3S               
1 41944U 17007A   26204.70694103 -.00000358  00000+0  00000+0 0  9996
2 41944   0.0169  76.5927 0002544  46.5299 190.8006  1.00270414 34501
INTELSAT 32E (IS-32E)   
1 41945U 17007B   26204.74628787  .00000000  00000+0  00000+0 0  9999
2 41945   0.0222  52.4804 0000495 357.9690 116.5083  1.00270146 34597
ECHOSTAR 23             
1 42070U 17014A   26204.21333595 -.00000053  00000+0  00000+0 0  9998
2 42070   0.0182  60.4608 0002240  62.9956 144.3864  1.00272110 34286
WGS F9 (USA 275)        
1 42075U 17016A   26204.82377751  .00000000  00000+0  00000+0 0  9995
2 42075   0.0189  44.3660 0000327  82.1022  99.6702  1.00270312 34262
SES-10                  
1 42432U 17017A   26204.74152118 -.00000268  00000+0  00000+0 0  9999
2 42432   0.0172  51.2477 0002843  70.6822  19.5855  1.00272701 34128
CHINASAT 16 (SJ-13)     
1 42662U 17018A   26204.91937014 -.00000347  00000+0  00000+0 0  9998
2 42662   0.0870  88.7177 0004907 127.7334 166.7061  1.00270181 34118
KOREASAT 7              
1 42691U 17023A   26204.77786463 -.00000357  00000+0  00000+0 0  9991
2 42691   0.0215  26.5999 0000773 103.3694 207.4586  1.00270272 33734
SGDC                    
1 42692U 17023B   26204.37155701 -.00000245  00000+0  00000+0 0  9999
2 42692   0.0137  38.6414 0002444  83.9588 237.4121  1.00272031 33762
GSAT-9                  
1 42695U 17024A   26204.34647516 -.00000282  00000+0  00000+0 0  9991
2 42695   0.1050  90.4910 0002242  29.7759  42.8556  1.00273413 33665
INMARSAT 5-F4           
1 42698U 17025A   26204.40967611  .00000080  00000+0  00000+0 0  9998
2 42698   0.0183  58.6375 0000573  95.5212 350.9656  1.00271969 33641
SES-15                  
1 42709U 17026A   26204.72930115  .00000065  00000+0  00000+0 0  9999
2 42709   0.0313 314.6037 0000615 132.1158 348.1297  1.00266677  7790
QZS-2 (MICHIBIKI-2)     
1 42738U 17028A   26204.41483471 -.00000112  00000+0  00000+0 0  9991
2 42738  39.3751 242.6194 0756665 269.7024  80.6651  1.00274629  7988
VIASAT-2                
1 42740U 17029A   26204.81235811 -.00000260  00000+0  00000+0 0  9996
2 42740   0.0177 310.6505 0000553 193.9380  19.4816  1.00271462 33569
EUTELSAT 172B           
1 42741U 17029B   26204.78895801 -.00000001  00000+0  00000+0 0  9997
2 42741   0.0295 120.1835 0000266 323.3460 314.0039  1.00272822 34103
GSAT-19                 
1 42747U 17031A   26204.83561170  .00000130  00000+0  00000+0 0  9993
2 42747   0.0596  89.5991 0006379   4.7939 195.8553  1.00273802 33515
ECHOSTAR 21             
1 42749U 17032A   26204.87475242  .00000073  00000+0  00000+0 0  9990
2 42749   1.7705 358.0655 0002475 114.8618 153.8326  1.00273245 33465
BULGARIASAT-1           
1 42801U 17038A   26204.88030727  .00000016  00000+0  00000+0 0  9998
2 42801   0.0218  61.0500 0003008  68.8766 130.4961  1.00273130 33212
HELLAS-SAT 3            
1 42814U 17040A   26204.83387838  .00000157  00000+0  00000+0 0  9994
2 42814   0.0423  40.4963 0003650  36.4997 203.7701  1.00269405 33179
GSAT-17                 
1 42815U 17040B   26204.84471176 -.00000253  00000+0  00000+0 0  9993
2 42815   0.0442 259.3810 0001911  12.4072  67.3696  1.00273430 33157
INTELSAT 35E (IS-35E)   
1 42818U 17041A   26204.74802123 -.00000233  00000+0  00000+0 0  9994
2 42818   0.0176  62.0653 0002153  57.1391  57.0588  1.00271451 33187
COSMOS 2520             
1 42907U 17046A   26204.26480913  .00000142  00000+0  00000+0 0  9992
2 42907   0.0292 104.7584 0000287 334.7815   1.8018  1.00268630 32755
TDRS 13                 
1 42915U 17047A   26204.82395086 -.00000095  00000+0  00000+0 0  9998
2 42915   3.4620   3.6223 0015146 112.0741 111.0826  1.00272721 32711
