OBJECT_NAME,OBJECT_ID,EPOCH,MEAN_MOTION,ECCENTRICITY,INCLINATION,RA_OF_ASC_NODE,ARG_OF_PERICENTER,MEAN_ANOMALY,EPHEMERIS_TYPE,CLASSIFICATION_TYPE,NORAD_CAT_ID,ELEMENT_SET_NO,REV_AT_EPOCH,BSTAR,MEAN_MOTION_DOT,MEAN_MOTION_DDOT
GOES 16,2016-071A,2026-07-23T15:17:51.696960,1.00271941,.000076,0.4244,85.4160,70.5638,270.1499,0,U,41866,999,3546,0,-.86E-6,0
TIANLIAN 1-04,2016-072A,2026-07-23T18:57:20.853216,1.00272694,.0044401,0.9601,82.6588,91.1134,228.8495,0,U,41869,999,3566,0,.35E-6,0
WGS F8 (USA 272),2016-075A,2026-07-23T18:23:38.473728,1.00272477,.0000151,0.0204,56.0973,15.4945,295.6254,0,U,41879,999,3518,0,-.197E-5,0
FENGYUN 4A,2016-077A,2026-07-23T20:24:59.769792,1.00264567,.0008025,2.4132,79.8624,158.5716,132.9767,0,U,41882,999,3529,0,-.355E-5,0
ECHOSTAR 19,2016-079A,2026-07-23T14:14:04.282368,1.00272129,.0001618,0.0174,66.0306,47.2424,304.4681,0,U,41893,999,3506,0,-.134E-5,0
JCSAT-110A (JCSAT-15),2016-082A,2026-07-23T20:21:07.639776,1.00271287,.0000782,0.0173,59.4775,62.3229,235.1229,0,U,41903,999,3512,0,-.346E-5,0
STAR ONE D1,2016-082B,2026-07-23T19:25:33.149280,1.00270749,.0002084,0.0161,285.5848,195.0426,28.3117,0,U,41904,999,3514,0,-.206E-5,0
TJS-2,2017-001A,2026-07-23T20:08:38.836896,1.00273055,.0000921,0.9250,84.8421,86.0219,139.4001,0,U,41911,999,3508,0,-.3E-7,0
SBIRS GEO-4 (USA 273),2017-004A,2026-07-23T20:51:38.651040,1.00279954,.000292,2.3124,44.1976,68.5491,163.6702,0,U,41937,999,3496,0,.131E-5,0
HISPASAT 36W-1,2017-006A,2026-07-23T17:56:46.570272,1.00271790,.0000995,0.0144,304.5358,181.8869,48.2502,0,U,41942,999,3461,0,-.239E-5,0
TELKOM 3S,2017-007A,2026-07-23T16:57:59.704992,1.00270414,.0002544,0.0169,76.5927,46.5299,190.8006,0,U,41944,999,3450,0,-.358E-5,0
INTELSAT 32E (IS-32E),2017-007B,2026-07-23T17:54:39.271968,1.00270146,.0000495,0.0222,52.4804,357.9690,116.5083,0,U,41945,999,3459,0,0,0
ECHOSTAR 23,2017-014A,2026-07-23T05:07:12.226080,1.00272110,.000224,0.0182,60.4608,62.9956,144.3864,0,U,42070,999,3428,0,-.53E-6,0
WGS F9 (USA 275),2017-016A,2026-07-23T19:46:14.376864,1.00270312,.0000327,0.0189,44.3660,82.1022,99.6702,0,U,42075,999,3426,0,0,0
SES-10,2017-017A,2026-07-23T17:47:47.429952,1.00272701,.0002843,0.0172,51.2477,70.6822,19.5855,0,U,42432,999,3412,0,-.268E-5,0
CHINASAT 16 (SJ-13),2017-018A,2026-07-23T22:03:53.580096,1.00270181,.0004907,0.0870,88.7177,127.7334,166.7061,0,U,42662,999,3411,0,-.347E-5,0
KOREASAT 7,2017-023A,2026-07-23T18:40:07.504032,1.00270272,.0000773,0.0215,26.5999,103.3694,207.4586,0,U,42691,999,3373,0,-.357E-5,0
SGDC,2017-023B,2026-07-23T08:55:02.525664,1.00272031,.0002444,0.0137,38.6414,83.9588,237.4121,0,U,42692,999,3376,0,-.245E-5,0
GSAT-9,2017-024A,2026-07-23T08:18:55.453824,1.00273413,.0002242,0.1050,90.4910,29.7759,42.8556,0,U,42695,999,3366,0,-.282E-5,0
INMARSAT 5-F4,2017-025A,2026-07-23T09:49:56.015904,1.00271969,.0000573,0.0183,58.6375,95.5212,350.9656,0,U,42698,999,3364,0,.8E-6,0
SES-15,2017-026A,2026-07-23T17:30:11.619360,1.00266677,.0000615,0.0313,314.6037,132.1158,348.1297,0,U,42709,999,779,0,.65E-6,0
QZS-2 (MICHIBIKI-2),2017-028A,2026-07-23T09:57:21.718944,1.00274629,.0756665,39.3751,242.6194,269.7024,80.6651,0,U,42738,999,798,0,-.112E-5,0
VIASAT-2,2017-029A,2026-07-23T19:29:47.740704,1.00271462,.0000553,0.0177,310.6505,193.9380,19.4816,0,U,42740,999,3356,0,-.26E-5,0
EUTELSAT 172B,2017-029B,2026-07-23T18:56:05.972064,1.00272822,.0000266,0.0295,120.1835,323.3460,314.0039,0,U,42741,999,3410,0,-.1E-7,0
GSAT-19,2017-031A,2026-07-23T20:03:16.850880,1.00273802,.0006379,0.0596,89.5991,4.7939,195.8553,0,U,42747,999,3351,0,.13E-5,0
ECHOSTAR 21,2017-032A,2026-07-23T20:59:38.609088,1.00273245,.0002475,1.7705,358.0655,114.8618,153.8326,0,U,42749,999,3346,0,.73E-6,0
BULGARIASAT-1,2017-038A,2026-07-23T21:07:38.548128,1.00273130,.0003008,0.0218,61.0500,68.8766,130.4961,0,U,42801,999,3321,0,.16E-6,0
HELLAS-SAT 3,2017-040A,2026-07-23T20:00:47.092032,1.00269405,.000365,0.0423,40.4963,36.4997,203.7701,0,U,42814,999,3317,0,.157E-5,0
GSAT-17,2017-040B,2026-07-23T20:16:23.096064,1.00273430,.0001911,0.0442,259.3810,12.4072,67.3696,0,U,42815,999,3315,0,-.253E-5,0
INTELSAT 35E (IS-35E),2017-041A,2026-07-23T17:57:09.034272,1.00271451,.0002153,0.0176,62.0653,57.1391,57.0588,0,U,42818,999,3318,0,-.233E-5,0
COSMOS 2520,2017-046A,2026-07-23T06:21:19.508832,1.00268630,.0000287,0.0292,104.7584,334.7815,1.8018,0,U,42907,999,3275,0,.142E-5,0
TDRS 13,2017-047A,2026-07-23T19:46:29.354304,1.00272721,.0015146,3.4620,3.6223,112.0741,111.0826,0,U,42915,999,3271,0,-.95E-6,0
